ISS (NAUKA)             
1 49044U 21066A   24180.67761657  .00019547  00000+0  35075-3 0  9994
2 49044  51.6386 258.3800 0011048  16.8141 343.3212 15.49852633166392
BRO-4                   
1 49066U 21073A   24181.49091694  .00042192  00000+0  12896-2 0  9991
2 49066  97.4473 257.5098 0017630 209.5480 150.4767 15.33597267158644
RADCUBE                 
1 49067U 21073B   24181.21063603  .00195462  00000+0  22542-2 0  9999
2 49067  97.4353 263.0165 0013061 202.4906 157.5781 15.61197385158987
SUNSTORM                
1 49068U 21073C   24181.50368274  .00151632  00000+0  21457-2 0  9999
2 49068  97.4416 262.2699 0012995 202.7181 157.3500 15.55891945158943
LEDSAT                  
1 49069U 21073D   24181.45620952  .00023096  00000+0  91556-3 0  9998
2 49069  97.4370 252.5078 0018206 236.3287 123.6215 15.25242987158321
STARLINK-3100           
1 49144U 21082Q   24181.03678337  .00002214  00000+0  19323-3 0  9997
2 49144  70.0002  54.2905 0003080 266.0507  94.0299 14.98342785153312
CUTE                    
1 49263U 21088D   24180.71854931  .00029488  00000+0  13571-2 0  9995
2 49263  97.4964 246.6368 0014458  48.1242 312.1224 15.20181009151394
2021-091B               
1 49316U 21091B   24181.51809524  .00007044  00000+0  33939-3 0  9990
2 49316  97.4568   8.8078 0006083 171.5844 188.5493 15.19029792150089
2021-091H               
1 49322U 21091H   24181.50571001  .00028639  00000+0  73250-3 0  9995
2 49322  97.4418  17.8092 0010654  38.3753 321.8248 15.39338392150704
SDGSAT 1                
1 49387U 21100A   24181.48778240  .00006964  00000+0  32876-3 0  9994
2 49387  97.3659 239.5697 0004883 195.8479 164.2604 15.19741125146920
ASTERISC                
1 49395U 21102A   24180.69120095  .00051722  00000+0  20140-2 0  9998
2 49395  97.4314 232.0903 0011747 176.2659 183.8668 15.25745846145057
TEIKYOSAT-4 (OORURI)    
1 49396U 21102B   24180.68532368  .00004168  00000+0  30197-3 0  9994
2 49396  97.4575 225.2654 0012409 233.3778 126.6308 15.04435886144486
Z-SAT                   
1 49399U 21102E   24181.47774379  .00007666  00000+0  49234-3 0  9993
2 49399  97.4305 227.6105 0019671 211.6949 148.3097 15.08564269144842
HIBARI                  
1 49400U 21102F   24181.11221833  .00012059  00000+0  69668-3 0  9994
2 49400  97.4286 229.0416 0017382 198.1927 161.8684 15.12320757144924
KOSEN-1                 
1 49402U 21102H   24181.09650187  .00010076  00000+0  59331-3 0  9994
2 49402  97.4224 228.7240 0018647 195.5971 164.4687 15.11662418144940
GLOBAL-14               
1 49469U 21106A   24181.24530941  .00028704  00000+0  74567-3 0  9998
2 49469  42.0084 163.2717 0006947 120.8912 239.2612 15.38349876147504
GLOBAL-15               
1 49470U 21106B   24181.42855849  .00096431  00000+0  90918-3 0  9997
2 49470  41.9963 176.4425 0026668 138.6873 221.5999 15.65540363147367
GAOFEN-3 02             
1 49495U 21109A   24181.54101492  .00000199  00000+0  73484-4 0  9994
2 49495  98.4115 188.6793 0002340  27.2329 332.8983 14.42216385136874
GLOBAL-12               
1 49772U 21115BA  24181.52695542  .00003289  00000+0  96377-4 0  9990
2 49772  53.2026 191.7588 0006970   8.8823 351.2304 15.38217263145229
GLOBAL-13               
1 49773U 21115BB  24181.50091063  .00026965  00000+0  71467-3 0  9995
2 49773  53.2041 193.1151 0004781  27.8208 332.3051 15.38163321145207
TIANJIN UNIVERSITY 1 (*)
1 49812U 21117A   24181.53853880  .00467673  86053-4  14634-2 0  9991
2 49812  97.3108 278.4505 0004444 201.9875 158.1209 15.91451860144198
GLOBAL-17               
1 49949U 21120A   24180.59282978  .00033925  00000+0  88303-3 0  9992
2 49949  42.0037 293.7234 0009407 351.6278   8.4403 15.38203671144087
GLOBAL-16               
1 49950U 21120B   24180.75627198  .00032829  00000+0  85365-3 0  9996
2 49950  42.0034 292.3320 0009271 351.1726   8.8949 15.38247964144104
XW-3 (CAS-9)            
1 50466U 21131B   24181.49686008  .00001190  00000+0  39437-3 0  9995
2 50466  98.5285 266.5087 0005425  92.3290 267.8519 14.39688073131771
UMBRA-02                
1 50986U 22002C   24181.46374580  .00084729  00000+0  29526-2 0  9992
2 50986  97.3902 246.2047 0004593 229.7171 130.3668 15.29302547136145
TEVEL-3                 
1 50988U 22002E   24181.48630672  .00293533  00000+0  20360-2 0  9995
2 50988  97.3727 258.0436 0005322 237.2973 122.7778 15.73589426136981
TEVEL-8                 
1 50989U 22002F   24181.46671448  .00270640  00000+0  19062-2 0  9991
2 50989  97.3756 258.1147 0005283 239.3253 120.7490 15.73293179136979
ION SCV-004             
1 50993U 22002K   24181.12713267  .00007986  00000+0  38320-3 0  9995
2 50993  97.3876 241.7493 0009676  19.1670 340.9926 15.19097414135834
TEVEL-5                 
1 50998U 22002Q   24181.33087404  .00524039  00000+0  21390-2 0  9991
2 50998  97.3700 259.5487 0008333 242.8538 117.1883 15.84794325137073
TEVEL-6                 
1 50999U 22002R   24181.09328161  .00542577  00000+0  23024-2 0  9996
2 50999  97.3696 259.2331 0008260 242.9875 117.0552 15.83926482137035
TEVEL-1                 
1 51013U 22002AF  24181.45729940  .00286781  00000+0  20237-2 0  9999
2 51013  97.3728 257.8548 0005647 237.5416 122.5303 15.73201116136976
IRIS-A                  
1 51044U 22002BN  24180.74734123  .00032411  00000+0  10453-2 0  9991
2 51044  97.3837 247.2176 0004975   6.4194 353.7110 15.32081290136192
FLOCK 4X-28             
1 51045U 22002BP  24181.19401249  .00448685  00000+0  25719-2 0  9997
2 51045  97.3709 261.4278 0009590 234.2834 125.7541 15.77537205137166
KEPLER-19               
1 51051U 22002BV  24181.14131805  .00024909  00000+0  88514-3 0  9999
2 51051  97.3886 246.0138 0006080  23.9824 336.1698 15.28985210136121
ETV-A1                  
1 51060U 22002CE  24181.48868530  .00010258  00000+0  45707-3 0  9997
2 51060  97.3897 243.9332 0008445  32.8240 327.3519 15.21589755135998
BRO-5                   
1 51061U 22002CF  24181.47231610  .00023176  00000+0  92734-3 0  9995
2 51061  97.3945 245.5681 0007668  35.4714 324.7032 15.25055447136070
TEVEL-7                 
1 51062U 22002CG  24181.51324829  .00287889  00000+0  19930-2 0  9995
2 51062  97.3744 258.1448 0005690 237.8918 122.1794 15.73648498136988
TEVEL-4                 
1 51063U 22002CH  24181.50315585  .00277626  00000+0  20029-2 0  9993
2 51063  97.3743 257.9988 0005500 237.9389 122.1341 15.72704963136973
TEVEL-2                 
1 51069U 22002CP  24181.48313991  .00296111  00000+0  20496-2 0  9993
2 51069  97.3722 258.0087 0005434 236.6416 123.4328 15.73630665136989
VZLUSAT-2               
1 51085U 22002DF  24181.52277551  .00021391  00000+0  78288-3 0  9996
2 51085  97.3872 246.0333 0009765  17.1350 343.0217 15.28020014136151
L-SAR 01A               
1 51284U 22007A   24181.53402673  .00001612  00000+0  17968-3 0  9990
2 51284  97.8098 188.2349 0001596  92.8161 267.3239 14.88424627131728
INSPIRESAT-1            
1 51657U 22013B   24180.94547747  .00023296  00000+0  89612-3 0  9994
2 51657  97.5281 197.8689 0010666 121.8944 238.3334 15.26347729131359
INS-2TD                 
1 51658U 22013C   24180.93133195  .00076118  00000+0  15180-2 0  9991
2 51658  97.5178 204.6384 0008443 112.6880 247.5263 15.46560915131811
L-SAR 01B               
1 51822U 22018A   24181.50031928  .00001681  00000+0  18716-3 0  9996
2 51822  97.8102 188.1718 0001578  94.3259 265.8138 14.88421838126957
2022-019D               
1 51827U 22019D   24181.52516536  .00016106  00000+0  69919-3 0  9996
2 51827  97.4335 253.2773 0013349 188.3023 171.7995 15.22324091129123
2022-019G               
1 51830U 22019G   24181.49636655  .00117798  00000+0  18546-2 0  9999
2 51830  97.4276 262.6209 0010909 166.2013 193.9540 15.53105680129769
JILIN-1 GAOFEN 03D14    
1 51831U 22019H   24181.53366185  .00023995  00000+0  89153-3 0  9991
2 51831  97.4333 255.8017 0015716 180.1600 179.9636 15.27427017129293
2022-019J               
1 51832U 22019J   24181.51215563  .00004387  00000+0  23992-3 0  9996
2 51832  97.4325 250.1994 0009141 202.8086 157.2741 15.14751100128926
JILIN-1 GAOFEN 03D16    
1 51834U 22019L   24181.41004659 -.00909800  00000+0 -37573-1 0  9993
2 51834  97.4274 255.7305 0014949 189.4821 246.9267 15.26759983129275
JILIN-1 GAOFEN 03D11    
1 51835U 22019M   24181.52004950  .00023365  00000+0  86977-3 0  9995
2 51835  97.4339 255.8672 0014125 180.3139 179.8093 15.27392212129296
JILIN-1 GAOFEN 03D17    
1 51838U 22019Q   24181.54689541  .00025118  00000+0  91669-3 0  9997
2 51838  97.4336 256.2053 0011021 183.6529 176.4631 15.28067780129320
JILIN-1 GAOFEN 03D15    
1 51839U 22019R   24181.50384070  .00024273  00000+0  90001-3 0  9993
2 51839  97.4316 255.6757 0009833 175.8408 184.2915 15.27563728129290
JILIN-1 GAOFEN 03D10    
1 51840U 22019S   24181.48952859  .00024655  00000+0  91640-3 0  9992
2 51840  97.4331 255.8347 0012178 176.0194 184.1144 15.27456421129291
JILIN-1 GAOFEN 03D12    
1 51841U 22019T   24181.48189836  .00024865  00000+0  92449-3 0  9991
2 51841  97.4323 255.7374 0012428 175.7220 184.4127 15.27441531129296
JILIN-1 GAOFEN 03D18    
1 51844U 22019W   24181.47302828  .00024269  00000+0  90040-3 0  9994
2 51844  97.4311 255.5113 0016988 184.8291 175.2787 15.27453041129186
2022-023F               
1 51951U 22023F   24181.49700562  .00013808  00000+0  61870-3 0  9993
2 51951  63.4944 191.1122 0085127 343.9964  15.8461 15.18271851128747
ORESAT0                 
1 52017U 22026K   24180.98854416  .00106216  00000+0  15361-2 0  9990
2 52017  97.4937 195.8196 0014216 162.3757 197.7993 15.55438275127549
CZ-4C R/B               
1 52085U 22027B   24181.37356540  .00000032  00000+0  14156-3 0  9996
2 52085  63.3951 169.1353 0169191  26.9015 334.0669 13.65391635114028
MERIDIAN 10             
1 52145U 22030A   24179.15889125  .00000306  00000+0  00000+0 0  9993
2 52145  62.6511 217.1437 6839356 273.7428  16.9408  2.00610142 16582
